[{"OBJECT_NAME":"STARLINK-4630","OBJECT_ID":"2022-105AJ","EPOCH":"2026-03-09T22:50:44.378592","MEAN_MOTION":15.05647203,"ECCENTRICITY":0.00023198,"INCLINATION":97.6031,"RA_OF_ASC_NODE":311.4726,"ARG_OF_PERICENTER":85.4465,"MEAN_ANOMALY":274.7027,"EPHEMERIS_TYPE":0,"CLASSIFICATION_TYPE":"U","NORAD_CAT_ID":53680,"ELEMENT_SET_NO":999,"REV_AT_EPOCH":19334,"BSTAR":6.070959e-5,"MEAN_MOTION_DOT":8.15e-6,"MEAN_MOTION_DDOT":0},{"OBJECT_NAME":"AISAT","OBJECT_ID":"2014-034B","EPOCH":"2026-03-09T16:29:04.722144","MEAN_MOTION":15.06703825,"ECCENTRICITY":0.00089151,"INCLINATION":98.2441,"RA_OF_ASC_NODE":333.9816,"ARG_OF_PERICENTER":189.0234,"MEAN_ANOMALY":171.0832,"EPHEMERIS_TYPE":0,"CLASSIFICATION_TYPE":"U","NORAD_CAT_ID":40054,"ELEMENT_SET_NO":999,"REV_AT_EPOCH":63221,"BSTAR":0.00094770343,"MEAN_MOTION_DOT":0.00014038,"MEAN_MOTION_DDOT":0}]
